XRISM                   
1 57800U 23137A   26086.53546643  .00005731  00000+0  32257-3 0  9991
2 57800  31.0014 168.2169 0007950 219.0485 140.9581 15.11699432140491
ACS3                    
1 59588U 24077B   26086.56568842  .00026289  00000+0  20685-1 0  9999
2 59588  97.1975  23.6593 0072099  35.5817 325.0124 13.90420472 96687
SZ-21 MODULE            
1 66515U 25246C   26086.32027920  .00037451  00000+0  30509-3 0  9998
2 66515  41.4743  94.7188 0001373 209.1832 150.8934 15.69886344 20842
