CCSDS_OMM_VERS = 2.0
CREATION_DATE  = 
ORIGINATOR     = 

OBJECT_NAME    = XRISM
OBJECT_ID      = 2023-137A
CENTER_NAME    = EARTH
REF_FRAME      = TEME
TIME_SYSTEM    = UTC
MEAN_ELEMENT_THEORY = SGP/SGP4

EPOCH          = 2026-03-27T12:51:04.299552
MEAN_MOTION    = 15.11699432
ECCENTRICITY   = .00079501
INCLINATION    = 31.0014
RA_OF_ASC_NODE = 168.2169
ARG_OF_PERICENTER = 219.0485
MEAN_ANOMALY   = 140.9581

EPHEMERIS_TYPE = 0
CLASSIFICATION_TYPE = U
NORAD_CAT_ID   = 57800
ELEMENT_SET_NO = 999
REV_AT_EPOCH   = 14049
BSTAR          = .3225714E-3
MEAN_MOTION_DOT = .5731E-4
MEAN_MOTION_DDOT = 0

CCSDS_OMM_VERS = 2.0
CREATION_DATE  = 
ORIGINATOR     = 

OBJECT_NAME    = ACS3
OBJECT_ID      = 2024-077B
CENTER_NAME    = EARTH
REF_FRAME      = TEME
TIME_SYSTEM    = UTC
MEAN_ELEMENT_THEORY = SGP/SGP4

EPOCH          = 2026-03-27T13:34:35.479488
MEAN_MOTION    = 13.90420472
ECCENTRICITY   = .00720995
INCLINATION    = 97.1975
RA_OF_ASC_NODE = 23.6593
ARG_OF_PERICENTER = 35.5817
MEAN_ANOMALY   = 325.0124

EPHEMERIS_TYPE = 0
CLASSIFICATION_TYPE = U
NORAD_CAT_ID   = 59588
ELEMENT_SET_NO = 999
REV_AT_EPOCH   = 9668
BSTAR          = .20685293E-1
MEAN_MOTION_DOT = .26289E-3
MEAN_MOTION_DDOT = 0

CCSDS_OMM_VERS = 2.0
CREATION_DATE  = 
ORIGINATOR     = 

OBJECT_NAME    = SZ-21 MODULE
OBJECT_ID      = 2025-246C
CENTER_NAME    = EARTH
REF_FRAME      = TEME
TIME_SYSTEM    = UTC
MEAN_ELEMENT_THEORY = SGP/SGP4

EPOCH          = 2026-03-27T07:41:12.122880
MEAN_MOTION    = 15.69886344
ECCENTRICITY   = .00013734
INCLINATION    = 41.4743
RA_OF_ASC_NODE = 94.7188
ARG_OF_PERICENTER = 209.1832
MEAN_ANOMALY   = 150.8934

EPHEMERIS_TYPE = 0
CLASSIFICATION_TYPE = U
NORAD_CAT_ID   = 66515
ELEMENT_SET_NO = 999
REV_AT_EPOCH   = 2084
BSTAR          = .30508676E-3
MEAN_MOTION_DOT = .37451E-3
MEAN_MOTION_DDOT = 0

